[{"OBJECT_NAME":"TK-2","OBJECT_ID":"2022-031A","EPOCH":"2026-03-09T22:51:17.143200","MEAN_MOTION":15.02943491,"ECCENTRICITY":0.00164117,"INCLINATION":97.8366,"RA_OF_ASC_NODE":263.9365,"ARG_OF_PERICENTER":100.3205,"MEAN_ANOMALY":259.9871,"EPHEMERIS_TYPE":0,"CLASSIFICATION_TYPE":"U","NORAD_CAT_ID":52150,"ELEMENT_SET_NO":999,"REV_AT_EPOCH":21555,"BSTAR":0.00040164474,"MEAN_MOTION_DOT":5.349e-5,"MEAN_MOTION_DDOT":0},{"OBJECT_NAME":"STARLINK-36240","OBJECT_ID":"2025-298B","EPOCH":"2026-03-09T22:38:13.077024","MEAN_MOTION":14.9914115,"ECCENTRICITY":0.00027696,"INCLINATION":70.0016,"RA_OF_ASC_NODE":13.8861,"ARG_OF_PERICENTER":258.7048,"MEAN_ANOMALY":101.38,"EPHEMERIS_TYPE":0,"CLASSIFICATION_TYPE":"U","NORAD_CAT_ID":67076,"ELEMENT_SET_NO":999,"REV_AT_EPOCH":1325,"BSTAR":0.00087635231,"MEAN_MOTION_DOT":0.00010601,"MEAN_MOTION_DDOT":0}]
